{"fetched_at":"2026-07-20T18:29:24.778Z","source":"https://celestrak.org/NORAD/elements/gp.php?NAME=HAWK&FORMAT=JSON","constellation":"hawkeye-360","records":[{"OBJECT_NAME":"HAWK-7B","OBJECT_ID":"2023-054R","EPOCH":"2026-07-20T03:01:41.316960","CLASSIFICATION_TYPE":"U","MEAN_MOTION":15.27664241,"ECCENTRICITY":0.0000811,"INCLINATION":97.2683,"RA_OF_ASC_NODE":85.9006,"ARG_OF_PERICENTER":7.7198,"MEAN_ANOMALY":352.4054,"EPHEMERIS_TYPE":0,"NORAD_CAT_ID":56193,"ELEMENT_SET_NO":999,"REV_AT_EPOCH":18205,"BSTAR":0.00011661717,"MEAN_MOTION_DOT":0.00003081,"MEAN_MOTION_DDOT":0},{"OBJECT_NAME":"HAWK-7C","OBJECT_ID":"2023-054Y","EPOCH":"2026-07-20T03:01:30.140256","CLASSIFICATION_TYPE":"U","MEAN_MOTION":15.27662875,"ECCENTRICITY":0.0000421,"INCLINATION":97.2657,"RA_OF_ASC_NODE":86.6595,"ARG_OF_PERICENTER":320.118,"MEAN_ANOMALY":40.0029,"EPHEMERIS_TYPE":0,"NORAD_CAT_ID":56200,"ELEMENT_SET_NO":999,"REV_AT_EPOCH":18205,"BSTAR":0.00010976891,"MEAN_MOTION_DOT":0.00002896,"MEAN_MOTION_DDOT":0},{"OBJECT_NAME":"HAWK-8A","OBJECT_ID":"2024-066B","EPOCH":"2026-07-19T18:18:02.587680","CLASSIFICATION_TYPE":"U","MEAN_MOTION":14.99293927,"ECCENTRICITY":0.00033197,"INCLINATION":45.5973,"RA_OF_ASC_NODE":108.1984,"ARG_OF_PERICENTER":238.5875,"MEAN_ANOMALY":121.4682,"EPHEMERIS_TYPE":0,"NORAD_CAT_ID":59443,"ELEMENT_SET_NO":999,"REV_AT_EPOCH":12472,"BSTAR":0.000047531484,"MEAN_MOTION_DOT":0.00000358,"MEAN_MOTION_DDOT":0},{"OBJECT_NAME":"HAWK-8B","OBJECT_ID":"2024-066D","EPOCH":"2026-07-19T03:55:10.271712","CLASSIFICATION_TYPE":"U","MEAN_MOTION":14.99293455,"ECCENTRICITY":0.00034017,"INCLINATION":45.6182,"RA_OF_ASC_NODE":113.2843,"ARG_OF_PERICENTER":238.9589,"MEAN_ANOMALY":121.0959,"EPHEMERIS_TYPE":0,"NORAD_CAT_ID":59445,"ELEMENT_SET_NO":999,"REV_AT_EPOCH":12462,"BSTAR":0.000043935139,"MEAN_MOTION_DOT":0.00000313,"MEAN_MOTION_DDOT":0},{"OBJECT_NAME":"HAWK-9A","OBJECT_ID":"2024-066E","EPOCH":"2026-07-20T02:51:41.392512","CLASSIFICATION_TYPE":"U","MEAN_MOTION":14.99223709,"ECCENTRICITY":0.00031639,"INCLINATION":45.61,"RA_OF_ASC_NODE":107.0066,"ARG_OF_PERICENTER":226.7788,"MEAN_ANOMALY":133.283,"EPHEMERIS_TYPE":0,"NORAD_CAT_ID":59446,"ELEMENT_SET_NO":999,"REV_AT_EPOCH":12477,"BSTAR":0.00006803983,"MEAN_MOTION_DOT":0.0000061,"MEAN_MOTION_DDOT":0},{"OBJECT_NAME":"HAWK-9C","OBJECT_ID":"2024-066G","EPOCH":"2026-07-19T23:40:10.047360","CLASSIFICATION_TYPE":"U","MEAN_MOTION":14.99221998,"ECCENTRICITY":0.00030495,"INCLINATION":45.6071,"RA_OF_ASC_NODE":106.7918,"ARG_OF_PERICENTER":212.2142,"MEAN_ANOMALY":147.8553,"EPHEMERIS_TYPE":0,"NORAD_CAT_ID":59448,"ELEMENT_SET_NO":999,"REV_AT_EPOCH":12475,"BSTAR":0.000064852488,"MEAN_MOTION_DOT":0.00000571,"MEAN_MOTION_DDOT":0},{"OBJECT_NAME":"HAWK-8C","OBJECT_ID":"2024-066H","EPOCH":"2026-07-20T03:53:38.929632","CLASSIFICATION_TYPE":"U","MEAN_MOTION":14.99297533,"ECCENTRICITY":0.00030411,"INCLINATION":45.6078,"RA_OF_ASC_NODE":107.134,"ARG_OF_PERICENTER":248.0406,"MEAN_ANOMALY":112.0153,"EPHEMERIS_TYPE":0,"NORAD_CAT_ID":59449,"ELEMENT_SET_NO":999,"REV_AT_EPOCH":12477,"BSTAR":0.000066488098,"MEAN_MOTION_DOT":0.00000593,"MEAN_MOTION_DDOT":0},{"OBJECT_NAME":"HAWK-9B","OBJECT_ID":"2024-066J","EPOCH":"2026-07-20T01:16:11.383392","CLASSIFICATION_TYPE":"U","MEAN_MOTION":14.99218947,"ECCENTRICITY":0.00033343,"INCLINATION":45.6126,"RA_OF_ASC_NODE":108.2869,"ARG_OF_PERICENTER":208.7118,"MEAN_ANOMALY":151.358,"EPHEMERIS_TYPE":0,"NORAD_CAT_ID":59450,"ELEMENT_SET_NO":999,"REV_AT_EPOCH":12476,"BSTAR":0.000071351529,"MEAN_MOTION_DOT":0.00000651,"MEAN_MOTION_DDOT":0},{"OBJECT_NAME":"HAWK-10A","OBJECT_ID":"2024-149CA","EPOCH":"2026-07-20T03:10:28.272288","CLASSIFICATION_TYPE":"U","MEAN_MOTION":14.96596211,"ECCENTRICITY":0.00026254,"INCLINATION":97.6879,"RA_OF_ASC_NODE":276.4775,"ARG_OF_PERICENTER":342.7332,"MEAN_ANOMALY":17.38,"EPHEMERIS_TYPE":0,"NORAD_CAT_ID":60540,"ELEMENT_SET_NO":999,"REV_AT_EPOCH":10491,"BSTAR":0.000045515611,"MEAN_MOTION_DOT":0.00000461,"MEAN_MOTION_DDOT":0},{"OBJECT_NAME":"HAWK-10B","OBJECT_ID":"2024-149CF","EPOCH":"2026-07-20T04:46:33.397824","CLASSIFICATION_TYPE":"U","MEAN_MOTION":14.96595481,"ECCENTRICITY":0.00048697,"INCLINATION":97.6797,"RA_OF_ASC_NODE":275.8645,"ARG_OF_PERICENTER":356.532,"MEAN_ANOMALY":3.5867,"EPHEMERIS_TYPE":0,"NORAD_CAT_ID":60545,"ELEMENT_SET_NO":999,"REV_AT_EPOCH":10492,"BSTAR":0.000051555489,"MEAN_MOTION_DOT":0.0000053,"MEAN_MOTION_DDOT":0},{"OBJECT_NAME":"HAWK-10C","OBJECT_ID":"2024-149DM","EPOCH":"2026-07-20T03:10:46.403328","CLASSIFICATION_TYPE":"U","MEAN_MOTION":14.96594465,"ECCENTRICITY":0.00021923,"INCLINATION":97.6716,"RA_OF_ASC_NODE":275.1044,"ARG_OF_PERICENTER":326.3464,"MEAN_ANOMALY":33.7618,"EPHEMERIS_TYPE":0,"NORAD_CAT_ID":60575,"ELEMENT_SET_NO":999,"REV_AT_EPOCH":10491,"BSTAR":0.00005727284,"MEAN_MOTION_DOT":0.00000595,"MEAN_MOTION_DDOT":0},{"OBJECT_NAME":"HAWK-11B","OBJECT_ID":"2024-247C","EPOCH":"2026-07-19T19:17:40.976736","CLASSIFICATION_TYPE":"U","MEAN_MOTION":15.30707413,"ECCENTRICITY":0.00023776,"INCLINATION":45.0158,"RA_OF_ASC_NODE":110.9078,"ARG_OF_PERICENTER":54.6059,"MEAN_ANOMALY":305.5048,"EPHEMERIS_TYPE":0,"NORAD_CAT_ID":62379,"ELEMENT_SET_NO":999,"REV_AT_EPOCH":8800,"BSTAR":0.00012902212,"MEAN_MOTION_DOT":0.00003598,"MEAN_MOTION_DDOT":0},{"OBJECT_NAME":"HAWK-11C","OBJECT_ID":"2024-247E","EPOCH":"2026-07-19T03:37:17.438592","CLASSIFICATION_TYPE":"U","MEAN_MOTION":15.30698177,"ECCENTRICITY":0.00033091,"INCLINATION":45.0045,"RA_OF_ASC_NODE":113.8156,"ARG_OF_PERICENTER":33.9421,"MEAN_ANOMALY":326.1674,"EPHEMERIS_TYPE":0,"NORAD_CAT_ID":62381,"ELEMENT_SET_NO":999,"REV_AT_EPOCH":8790,"BSTAR":0.00013309156,"MEAN_MOTION_DOT":0.0000372,"MEAN_MOTION_DDOT":0},{"OBJECT_NAME":"HAWK-11A","OBJECT_ID":"2024-247F","EPOCH":"2026-07-19T22:25:08.102784","CLASSIFICATION_TYPE":"U","MEAN_MOTION":15.3070206,"ECCENTRICITY":0.00027134,"INCLINATION":44.994,"RA_OF_ASC_NODE":108.8436,"ARG_OF_PERICENTER":38.909,"MEAN_ANOMALY":321.1989,"EPHEMERIS_TYPE":0,"NORAD_CAT_ID":62382,"ELEMENT_SET_NO":999,"REV_AT_EPOCH":8802,"BSTAR":0.00013980967,"MEAN_MOTION_DOT":0.00003924,"MEAN_MOTION_DDOT":0},{"OBJECT_NAME":"HAWK-12C","OBJECT_ID":"2025-138A","EPOCH":"2026-07-20T06:11:34.012320","CLASSIFICATION_TYPE":"U","MEAN_MOTION":15.18428531,"ECCENTRICITY":0.00148468,"INCLINATION":97.4357,"RA_OF_ASC_NODE":203.1457,"ARG_OF_PERICENTER":34.9355,"MEAN_ANOMALY":325.285,"EPHEMERIS_TYPE":0,"NORAD_CAT_ID":64621,"ELEMENT_SET_NO":999,"REV_AT_EPOCH":5888,"BSTAR":0.00011028168,"MEAN_MOTION_DOT":0.00002208,"MEAN_MOTION_DDOT":0},{"OBJECT_NAME":"HAWK-12B","OBJECT_ID":"2025-138B","EPOCH":"2026-07-20T06:11:49.136640","CLASSIFICATION_TYPE":"U","MEAN_MOTION":15.18427736,"ECCENTRICITY":0.00136995,"INCLINATION":97.4481,"RA_OF_ASC_NODE":203.8475,"ARG_OF_PERICENTER":30.9844,"MEAN_ANOMALY":329.2195,"EPHEMERIS_TYPE":0,"NORAD_CAT_ID":64622,"ELEMENT_SET_NO":999,"REV_AT_EPOCH":5888,"BSTAR":0.00010774636,"MEAN_MOTION_DOT":0.00002154,"MEAN_MOTION_DDOT":0}]}
