HAWK-7B                 
1 56193U 23054R   26201.12617265  .00003081  00000+0  11662-3 0  9999
2 56193  97.2683  85.9006 0000811   7.7198 352.4054 15.27664241182058
HAWK-7C                 
1 56200U 23054Y   26201.12604329  .00002896  00000+0  10977-3 0  9996
2 56200  97.2657  86.6595 0000421 320.1180  40.0029 15.27662875182052
HAWK-8A                 
1 59443U 24066B   26200.76252995  .00000358  00000+0  47531-4 0  9997
2 59443  45.5973 108.1984 0003319 238.5875 121.4682 14.99293927124720
HAWK-8B                 
1 59445U 24066D   26200.16331333  .00000313  00000+0  43935-4 0  9992
2 59445  45.6182 113.2843 0003401 238.9589 121.0959 14.99293455124622
HAWK-9A                 
1 59446U 24066E   26201.11922908  .00000610  00000+0  68040-4 0  9997
2 59446  45.6100 107.0066 0003163 226.7788 133.2830 14.99223709124776
HAWK-9C                 
1 59448U 24066G   26200.98622740  .00000571  00000+0  64852-4 0  9997
2 59448  45.6071 106.7918 0003049 212.2142 147.8553 14.99221998124753
HAWK-8C                 
1 59449U 24066H   26201.16225613  .00000593  00000+0  66488-4 0  9998
2 59449  45.6078 107.1340 0003041 248.0406 112.0153 14.99297533124777
HAWK-9B                 
1 59450U 24066J   26201.05290953  .00000651  00000+0  71352-4 0  9998
2 59450  45.6126 108.2869 0003334 208.7118 151.3580 14.99218947124760
HAWK-10A                
1 60540U 24149CA  26201.13227167  .00000461  00000+0  45516-4 0  9990
2 60540  97.6879 276.4775 0002625 342.7332  17.3800 14.96596211104918
HAWK-10B                
1 60545U 24149CF  26201.19899766  .00000530  00000+0  51555-4 0  9998
2 60545  97.6797 275.8645 0004869 356.5320   3.5867 14.96595481104922
HAWK-10C                
1 60575U 24149DM  26201.13248152  .00000595  00000+0  57273-4 0  9996
2 60575  97.6716 275.1044 0002192 326.3464  33.7618 14.96594465104912
HAWK-11B                
1 62379U 24247C   26200.80394649  .00003598  00000+0  12902-3 0  9990
2 62379  45.0158 110.9078 0002377  54.6059 305.5048 15.30707413 88008
HAWK-11C                
1 62381U 24247E   26200.15089628  .00003720  00000+0  13309-3 0  9998
2 62381  45.0045 113.8156 0003309  33.9421 326.1674 15.30698177 87902
HAWK-11A                
1 62382U 24247F   26200.93412156  .00003924  00000+0  13981-3 0  9993
2 62382  44.9940 108.8436 0002713  38.9090 321.1989 15.30702060 88020
HAWK-12C                
1 64621U 25138A   26201.25803255  .00002208  00000+0  11028-3 0  9995
2 64621  97.4357 203.1457 0014846  34.9355 325.2850 15.18428531 58882
HAWK-12B                
1 64622U 25138B   26201.25820760  .00002154  00000+0  10775-3 0  9994
2 64622  97.4481 203.8475 0013699  30.9844 329.2195 15.18427736 58884
